{
  "type": "FeatureCollection",
  "features": [
    {
      "type": "Feature",
      "properties": {
        "norad_id": 42988,
        "name": "SKYSAT-C10",
        "group": "resource",
        "lat": 71.36379198883402,
        "lon": -41.612524682071424,
        "alt_km": 459.35220741132525,
        "timestamp": "2025-12-10T18:56:59.719466+00:00",
        "meta_object_name": "SKYSAT-C10",
        "meta_object_id": "2017-068B",
        "meta_epoch": "2025-12-10T09:04:43.296096",
        "meta_mean_motion": 15.31981221,
        "meta_eccentricity": 0.000532,
        "meta_inclination": 97.4258,
        "meta_ra_of_asc_node": 115.2229,
        "meta_arg_of_pericenter": 110.4799,
        "meta_mean_anomaly": 249.7014,
        "meta_ephemeris_type": 0,
        "meta_classification_type": "U",
        "meta_norad_cat_id": 42988,
        "meta_element_set_no": 999,
        "meta_rev_at_epoch": 45343,
        "meta_bstar": 0.00054588,
        "meta_mean_motion_dot": 0.00016803,
        "meta_mean_motion_ddot": 0,
        "tle_line1": "1 42988U 17068B   25344.37827889  .00016803  00000+0  54588-3 0  9993",
        "tle_line2": "2 42988  97.4258 115.2229 0005320 110.4799 249.7014 15.31981221453430"
      },
      "geometry": {
        "type": "Point",
        "coordinates": [
          -41.612524682071424,
          71.36379198883402
        ]
      }
    },
    {
      "type": "Feature",
      "properties": {
        "norad_id": 42989,
        "name": "SKYSAT-C9",
        "group": "resource",
        "lat": -71.78753623745341,
        "lon": 138.3576808919321,
        "alt_km": 472.49004442437035,
        "timestamp": "2025-12-10T18:56:59.719476+00:00",
        "meta_object_name": "SKYSAT-C9",
        "meta_object_id": "2017-068C",
        "meta_epoch": "2025-12-10T08:19:27.428736",
        "meta_mean_motion": 15.35952055,
        "meta_eccentricity": 0.0010695,
        "meta_inclination": 97.4187,
        "meta_ra_of_asc_node": 114.5818,
        "meta_arg_of_pericenter": 95.364,
        "meta_mean_anomaly": 264.8824,
        "meta_ephemeris_type": 0,
        "meta_classification_type": "U",
        "meta_norad_cat_id": 42989,
        "meta_element_set_no": 999,
        "meta_rev_at_epoch": 45371,
        "meta_bstar": 0.00054624,
        "meta_mean_motion_dot": 0.00019096,
        "meta_mean_motion_ddot": 0,
        "tle_line1": "1 42989U 17068C   25344.34684524  .00019096  00000+0  54624-3 0  9996",
        "tle_line2": "2 42989  97.4187 114.5818 0010695  95.3640 264.8824 15.35952055453710"
      },
      "geometry": {
        "type": "Point",
        "coordinates": [
          138.3576808919321,
          -71.78753623745341
        ]
      }
    },
    {
      "type": "Feature",
      "properties": {
        "norad_id": 42990,
        "name": "SKYSAT-C8",
        "group": "resource",
        "lat": -78.01013084629832,
        "lon": 152.68464022828047,
        "alt_km": 474.44035448116756,
        "timestamp": "2025-12-10T18:56:59.719486+00:00",
        "meta_object_name": "SKYSAT-C8",
        "meta_object_id": "2017-068D",
        "meta_epoch": "2025-12-10T08:20:01.637952",
        "meta_mean_motion": 15.32834789,
        "meta_eccentricity": 0.000174,
        "meta_inclination": 97.428,
        "meta_ra_of_asc_node": 114.3373,
        "meta_arg_of_pericenter": 359.9968,
        "meta_mean_anomaly": 0.1273,
        "meta_ephemeris_type": 0,
        "meta_classification_type": "U",
        "meta_norad_cat_id": 42990,
        "meta_element_set_no": 999,
        "meta_rev_at_epoch": 45334,
        "meta_bstar": 0.00052396,
        "meta_mean_motion_dot": 0.00016555,
        "meta_mean_motion_ddot": 0,
        "tle_line1": "1 42990U 17068D   25344.34724118  .00016555  00000+0  52396-3 0  9993",
        "tle_line2": "2 42990  97.4280 114.3373 0001740 359.9968   0.1273 15.32834789453341"
      },
      "geometry": {
        "type": "Point",
        "coordinates": [
          152.68464022828047,
          -78.01013084629832
        ]
      }
    },
    {
      "type": "Feature",
      "properties": {
        "norad_id": 42991,
        "name": "SKYSAT-C7",
        "group": "resource",
        "lat": 40.346040271432976,
        "lon": -57.81233674287733,
        "alt_km": 464.70734718750464,
        "timestamp": "2025-12-10T18:56:59.719496+00:00",
        "meta_object_name": "SKYSAT-C7",
        "meta_object_id": "2017-068E",
        "meta_epoch": "2025-12-10T08:56:28.824576",
        "meta_mean_motion": 15.32242586,
        "meta_eccentricity": 0.0007738,
        "meta_inclination": 97.4288,
        "meta_ra_of_asc_node": 115.4058,
        "meta_arg_of_pericenter": 64.6982,
        "meta_mean_anomaly": 295.5061,
        "meta_ephemeris_type": 0,
        "meta_classification_type": "U",
        "meta_norad_cat_id": 42991,
        "meta_element_set_no": 999,
        "meta_rev_at_epoch": 45341,
        "meta_bstar": 0.00055144,
        "meta_mean_motion_dot": 0.00017123,
        "meta_mean_motion_ddot": 0,
        "tle_line1": "1 42991U 17068E   25344.37255584  .00017123  00000+0  55144-3 0  9999",
        "tle_line2": "2 42991  97.4288 115.4058 0007738  64.6982 295.5061 15.32242586453412"
      },
      "geometry": {
        "type": "Point",
        "coordinates": [
          -57.81233674287733,
          40.346040271432976
        ]
      }
    },
    {
      "type": "Feature",
      "properties": {
        "norad_id": 42992,
        "name": "SKYSAT-C6",
        "group": "resource",
        "lat": -79.00048575321293,
        "lon": -105.92682092978461,
        "alt_km": 482.48712986688497,
        "timestamp": "2025-12-10T18:56:59.719505+00:00",
        "meta_object_name": "SKYSAT-C6",
        "meta_object_id": "2017-068F",
        "meta_epoch": "2025-12-10T08:24:03.436992",
        "meta_mean_motion": 15.31408084,
        "meta_eccentricity": 0.0005216,
        "meta_inclination": 97.4322,
        "meta_ra_of_asc_node": 115.8236,
        "meta_arg_of_pericenter": 88.967,
        "meta_mean_anomaly": 271.2169,
        "meta_ephemeris_type": 0,
        "meta_classification_type": "U",
        "meta_norad_cat_id": 42992,
        "meta_element_set_no": 999,
        "meta_rev_at_epoch": 45339,
        "meta_bstar": 0.00050529,
        "meta_mean_motion_dot": 0.00015268,
        "meta_mean_motion_ddot": 0,
        "tle_line1": "1 42992U 17068F   25344.35003978  .00015268  00000+0  50529-3 0  9996",
        "tle_line2": "2 42992  97.4322 115.8236 0005216  88.9670 271.2169 15.31408084453399"
      },
      "geometry": {
        "type": "Point",
        "coordinates": [
          -105.92682092978461,
          -79.00048575321293
        ]
      }
    },
    {
      "type": "Feature",
      "properties": {
        "norad_id": 43111,
        "name": "CARTOSAT-2F",
        "group": "resource",
        "lat": 81.671415643908,
        "lon": -74.46384868493958,
        "alt_km": 500.32443576082005,
        "timestamp": "2025-12-10T18:56:59.719515+00:00",
        "meta_object_name": "CARTOSAT-2F",
        "meta_object_id": "2018-004A",
        "meta_epoch": "2025-12-10T10:38:06.220320",
        "meta_mean_motion": 15.19237077,
        "meta_eccentricity": 7.96e-05,
        "meta_inclination": 97.4315,
        "meta_ra_of_asc_node": 42.118,
        "meta_arg_of_pericenter": 143.5592,
        "meta_mean_anomaly": 216.5697,
        "meta_ephemeris_type": 0,
        "meta_classification_type": "U",
        "meta_norad_cat_id": 43111,
        "meta_element_set_no": 999,
        "meta_rev_at_epoch": 43867,
        "meta_bstar": 0.00039049,
        "meta_mean_motion_dot": 8.163e-05,
        "meta_mean_motion_ddot": 0,
        "tle_line1": "1 43111U 18004A   25344.44312755  .00008163  00000+0  39049-3 0  9997",
        "tle_line2": "2 43111  97.4315  42.1180 0000796 143.5592 216.5697 15.19237077438674"
      },
      "geometry": {
        "type": "Point",
        "coordinates": [
          -74.46384868493958,
          81.671415643908
        ]
      }
    },
    {
      "type": "Feature",
      "properties": {
        "norad_id": 43259,
        "name": "GAOFEN-1 02",
        "group": "resource",
        "lat": 19.514418969621815,
        "lon": -134.53584652389696,
        "alt_km": 640.0987780573569,
        "timestamp": "2025-12-10T18:56:59.719525+00:00",
        "meta_object_name": "GAOFEN-1 02",
        "meta_object_id": "2018-031A",
        "meta_epoch": "2025-12-10T10:05:39.541920",
        "meta_mean_motion": 14.76473501,
        "meta_eccentricity": 0.0001467,
        "meta_inclination": 98.0805,
        "meta_ra_of_asc_node": 42.209,
        "meta_arg_of_pericenter": 219.8882,
        "meta_mean_anomaly": 140.222,
        "meta_ephemeris_type": 0,
        "meta_classification_type": "U",
        "meta_norad_cat_id": 43259,
        "meta_element_set_no": 999,
        "meta_rev_at_epoch": 41484,
        "meta_bstar": 0.00024425,
        "meta_mean_motion_dot": 1.648e-05,
        "meta_mean_motion_ddot": 0,
        "tle_line1": "1 43259U 18031A   25344.42059655  .00001648  00000+0  24425-3 0  9998",
        "tle_line2": "2 43259  98.0805  42.2090 0001467 219.8882 140.2220 14.76473501414848"
      },
      "geometry": {
        "type": "Point",
        "coordinates": [
          -134.53584652389696,
          19.514418969621815
        ]
      }
    }
  ]
}